COMMENT,ORIGINATOR,NORAD_CAT_ID,OBJECT_NAME,OBJECT_TYPE,CLASSIFICATION_TYPE,INTLDES,EPOCH,EPOCH_MICROSECONDS,MEAN_MOTION,ECCENTRICITY,INCLINATION,RA_OF_ASC_NODE,ARG_OF_PERICENTER,MEAN_ANOMALY,EPHEMERIS_TYPE,ELEMENT_SET_NO,REV_AT_EPOCH,BSTAR,MEAN_MOTION_DOT,MEAN_MOTION_DDOT,FILE,TLE_LINE0,TLE_LINE1,TLE_LINE2,OBJECT_ID,OBJECT_NUMBER,SEMIMAJOR_AXIS,PERIOD,APOGEE,PERIGEE,DECAYED
"GENERATED VIA SPACETRACK.ORG API","18 SPCS","55099","SPACEBEE-156","PAYLOAD","U","23001CU","2023-04-18 05:51:30","679776","15.17900777","0.0015781","97.4831","168.9555","205.3019","154.7443","0","999","1600","0.0011825","0.00024042","0","3889817","0 SPACEBEE-156","1 55099U 23001CU  23108.24410509  .00024042  00000-0  11825-2 0  9994","2 55099  97.4831 168.9555 0015781 205.3019 154.7443 15.17900777 16002","2023-001CU","55099","6890.323","94.868","523.062","501.314","0"
"GENERATED VIA SPACETRACK.ORG API","18 SPCS","55099","SPACEBEE-156","PAYLOAD","U","23001CU","2023-04-18 16:56:00","336480","15.17923961","0.0015865","97.4831","169.4117","203.5123","156.5387","0","999","1607","0.0012014","0.00024446","0","3889987","0 SPACEBEE-156","1 55099U 23001CU  23108.70555945  .00024446  00000-0  12014-2 0  9998","2 55099  97.4831 169.4117 0015865 203.5123 156.5387 15.17923961 16075","2023-001CU","55099","6890.253","94.866","523.049","501.187","0"
"GENERATED VIA SPACETRACK.ORG API","18 SPCS","55099","SPACEBEE-156","PAYLOAD","U","23001CU","2023-04-19 04:00:29","438496","15.17947269","0.0015854","97.4827","169.8683","201.7327","158.3236","0","999","1614","0.0013143","0.00026775","0","3890383","0 SPACEBEE-156","1 55099U 23001CU  23109.16700739  .00026775  00000-0  13143-2 0  9993","2 55099  97.4827 169.8683 0015854 201.7327 158.3236 15.17947269 16144","2023-001CU","55099","6890.182","94.865","522.971","501.124","0"
"GENERATED VIA SPACETRACK.ORG API","18 SPCS","55099","SPACEBEE-156","PAYLOAD","U","23001CU","2023-04-19 18:14:48","786432","15.17977056","0.0015921","97.4824","170.4548","199.5001","160.5626","0","999","1623","0.0013085","0.0002668","0","3890520","0 SPACEBEE-156","1 55099U 23001CU  23109.76028688  .00026680  00000-0  13085-2 0  9995","2 55099  97.4824 170.4548 0015921 199.5001 160.5626 15.17977056 16232","2023-001CU","55099","6890.092","94.863","522.927","500.988","0"
"GENERATED VIA SPACETRACK.ORG API","18 SPCS","55099","SPACEBEE-156","PAYLOAD","U","23001CU","2023-04-20 02:09:25","765920","15.17989436","0.0015911","97.4822","170.7809","198.3803","161.6858","0","999","1628","0.0010375","0.00021132","0","3890803","0 SPACEBEE-156","1 55099U 23001CU  23110.08988155  .00021132  00000-0  10375-2 0  9992","2 55099  97.4822 170.7809 0015911 198.3803 161.6858 15.17989436 16288","2023-001CU","55099","6890.055","94.862","522.883","500.957","0"
"GENERATED VIA SPACETRACK.ORG API","18 SPCS","55099","SPACEBEE-156","PAYLOAD","U","23001CU","2023-04-20 03:44:21","132096","15.17992459","0.0015916","97.4821","170.8461","198.1391","161.9277","0","999","1629","0.0010156","0.00020685","0","3890827","0 SPACEBEE-156","1 55099U 23001CU  23110.15580014  .00020685  00000-0  10156-2 0  9991","2 55099  97.4821 170.8461 0015916 198.1391 161.9277 15.17992459 16295","2023-001CU","55099","6890.046","94.862","522.877","500.944","0"
"GENERATED VIA SPACETRACK.ORG API","18 SPCS","55099","SPACEBEE-156","PAYLOAD","U","23001CU","2023-04-20 17:58:38","943840","15.18018368","0.0016031","97.4819","171.4325","196.2405","163.8317","0","999","1638","0.00099376","0.00020254","0","3891109","0 SPACEBEE-156","1 55099U 23001CU  23110.74906185  .00020254  00000-0  99376-3 0  9991","2 55099  97.4819 171.4325 0016031 196.2405 163.8317 15.18018368 16387","2023-001CU","55099","6889.967","94.861","522.878","500.787","0"
"GENERATED VIA SPACETRACK.ORG API","18 SPCS","55099","SPACEBEE-156","PAYLOAD","U","23001CU","2023-04-21 09:47:51","134208","15.18042764","0.001609","97.4813","172.0843","194.2156","165.8627","0","999","1648","0.00092432","0.00018844","0","3891495","0 SPACEBEE-156","1 55099U 23001CU  23111.40823072  .00018844  00000-0  92432-3 0  9996","2 55099  97.4813 172.0843 0016090 194.2156 165.8627 15.18042764 16483","2023-001CU","55099","6889.893","94.859","522.844","500.673","0"
"GENERATED VIA SPACETRACK.ORG API","18 SPCS","55099","SPACEBEE-156","PAYLOAD","U","23001CU","2023-04-21 09:47:51","134208","15.18042764","0.001609","97.4813","172.0843","194.2156","165.8627","0","999","1648","0.00092432","0.00018844","0","3891529","0 SPACEBEE-156","1 55099U 23001CU  23111.40823072  .00018844  00000-0  92432-3 0  9996","2 55099  97.4813 172.0843 0016090 194.2156 165.8627 15.18042764 16483","2023-001CU","55099","6889.893","94.859","522.844","500.673","0"
"GENERATED VIA SPACETRACK.ORG API","18 SPCS","55099","SPACEBEE-156","PAYLOAD","U","23001CU","2023-04-21 17:42:26","933472","15.18054696","0.0016113","97.4812","172.4103","193.1497","166.9319","0","999","1653","0.0009399","0.0001917","0","3891716","0 SPACEBEE-156","1 55099U 23001CU  23111.73781173  .00019170  00000-0  93990-3 0  9990","2 55099  97.4812 172.4103 0016113 193.1497 166.9319 15.18054696 16530","2023-001CU","55099","6889.857","94.858","522.824","500.621","0"
"GENERATED VIA SPACETRACK.ORG API","18 SPCS","55099","SPACEBEE-156","PAYLOAD","U","23001CU","2023-04-22 03:11:57","466464","15.18073404","0.0016059","97.4809","172.8014","192.0841","168.001","0","999","1659","0.0010532","0.00021507","0","3892071","0 SPACEBEE-156","1 55099U 23001CU  23112.13330401  .00021507  00000-0  10532-2 0  9996","2 55099  97.4809 172.8014 0016059 192.0841 168.0010 15.18073404 16596","2023-001CU","55099","6889.801","94.857","522.730","500.601","0"
"GENERATED VIA SPACETRACK.ORG API","18 SPCS","55099","SPACEBEE-156","PAYLOAD","U","23001CU","2023-04-22 22:10:57","464544","15.1810416","0.0016177","97.481","173.584","189.5922","170.5005","0","999","1671","0.00095157","0.00019438","0","3892285","0 SPACEBEE-156","1 55099U 23001CU  23112.92427621  .00019438  00000-0  95157-3 0  9991","2 55099  97.4810 173.5840 0016177 189.5922 170.5005 15.18104160 16715","2023-001CU","55099","6889.708","94.855","522.718","500.427","0"
"GENERATED VIA SPACETRACK.ORG API","18 SPCS","55099","SPACEBEE-156","PAYLOAD","U","23001CU","2023-04-23 02:55:42","247200","15.18113925","0.0016197","97.481","173.7791","188.8253","171.2698","0","999","1674","0.0010044","0.0002053","0","3892688","0 SPACEBEE-156","1 55099U 23001CU  23113.12201675  .00020530  00000-0  10044-2 0  9999","2 55099  97.4810 173.7791 0016197 188.8253 171.2698 15.18113925 16741","2023-001CU","55099","6889.678","94.855","522.702","500.384","0"
"GENERATED VIA SPACETRACK.ORG API","18 SPCS","55099","SPACEBEE-156","PAYLOAD","U","23001CU","2023-04-23 14:00:06","367392","15.18133661","0.0016233","97.4808","174.2354","187.2677","172.8324","0","999","1681","0.0010468","0.00021415","0","3892831","0 SPACEBEE-156","1 55099U 23001CU  23113.58340703  .00021415  00000-0  10468-2 0  9998","2 55099  97.4808 174.2354 0016233 187.2677 172.8324 15.18133661 16813","2023-001CU","55099","6889.618","94.853","522.667","500.299","0"
"GENERATED VIA SPACETRACK.ORG API","18 SPCS","55099","SPACEBEE-156","PAYLOAD","U","23001CU","2023-04-24 02:39:24","568128","15.18166115","0.0016238","97.4809","174.7572","185.38","174.7262","0","999","1689","0.0014397","0.00029538","0","3893330","0 SPACEBEE-156","1 55099U 23001CU  23114.11070102  .00029538  00000-0  14397-2 0  9990","2 55099  97.4809 174.7572 0016238 185.3800 174.7262 15.18166115 16893","2023-001CU","55099","6889.520","94.851","522.572","500.198","0"
"GENERATED VIA SPACETRACK.ORG API","18 SPCS","55099","SPACEBEE-156","PAYLOAD","U","23001CU","2023-04-25 03:57:57","7296","15.18243632","0.0016334","97.481","175.8005","181.3296","178.7897","0","999","1705","0.0010502","0.00021554","0","3893857","0 SPACEBEE-156","1 55099U 23001CU  23115.16524314  .00021554  00000-0  10502-2 0  9999","2 55099  97.4810 175.8005 0016334 181.3296 178.7897 15.18243632 17057","2023-001CU","55099","6889.286","94.846","522.404","499.898","0"
"GENERATED VIA SPACETRACK.ORG API","18 SPCS","55099","SPACEBEE-156","PAYLOAD","U","23001CU","2023-04-25 03:57:57","7296","15.18243632","0.0016334","97.481","175.8005","181.3296","178.7897","0","999","1705","0.0010502","0.00021554","0","3894092","0 SPACEBEE-156","1 55099U 23001CU  23115.16524314  .00021554  00000-0  10502-2 0  9999","2 55099  97.4810 175.8005 0016334 181.3296 178.7897 15.18243632 17057","2023-001CU","55099","6889.286","94.846","522.404","499.898","0"
"GENERATED VIA SPACETRACK.ORG API","18 SPCS","55099","SPACEBEE-156","PAYLOAD","U","23001CU","2023-04-26 02:06:38","262240","15.18271559","0.0016396","97.4808","176.7133","178.1563","181.9735","0","999","1719","0.00082906","0.00017005","0","3894247","0 SPACEBEE-156","1 55099U 23001CU  23116.08794285  .00017005  00000-0  82906-3 0  9991","2 55099  97.4808 176.7133 0016396 178.1563 181.9735 15.18271559 17196","2023-001CU","55099","6889.201","94.845","522.362","499.771","0"
"GENERATED VIA SPACETRACK.ORG API","18 SPCS","55099","SPACEBEE-156","PAYLOAD","U","23001CU","2023-04-26 03:41:32","570880","15.18272201","0.0016398","97.4809","176.7785","178.1629","181.9668","0","999","1720","0.00072388","0.00014834","0","3894260","0 SPACEBEE-156","1 55099U 23001CU  23116.15384920  .00014834  00000-0  72388-3 0  9990","2 55099  97.4809 176.7785 0016398 178.1629 181.9668 15.18272201 17207","2023-001CU","55099","6889.199","94.845","522.361","499.767","0"
"GENERATED VIA SPACETRACK.ORG API","18 SPCS","55099","SPACEBEE-156","PAYLOAD","U","23001CU","2023-04-26 17:55:41","133504","15.18289927","0.0016335","97.481","177.3651","176.3203","183.8154","0","999","1729","0.00072121","0.00014787","0","3894261","0 SPACEBEE-156","1 55099U 23001CU  23116.74700386  .00014787  00000-0  72121-3 0  9995","2 55099  97.4810 177.3651 0016335 176.3203 183.8154 15.18289927 17290","2023-001CU","55099","6889.146","94.844","522.264","499.757","0"
